NORAD_CAT_ID,OBJECT_NAME,OBJECT_TYPE,EPOCH,MEAN_MOTION,ECCENTRICITY,INCLINATION,RA_OF_ASC_NODE,ARG_OF_PERICENTER,MEAN_ANOMALY,BSTAR,MEAN_MOTION_DOT,MEAN_MOTION_DDOT,TLE_LINE0,TLE_LINE1,TLE_LINE2,SEMIMAJOR_AXIS,PERIOD,APOGEE,PERIGEE,DECAYED
54061.0,STARLINK-5209,PAYLOAD,2023-10-20 22:09:57,15.08833614,0.0002004,53.2161,257.7373,108.5311,251.5899,-4.5043e-05,-1.005e-05,0.0,0 STARLINK-5209,1 54061U 22136L   23293.92358065 -.00001005  00000-0 -45043-4 0  9995,2 54061  53.2161 257.7373 0002004 108.5311 251.5899 15.08833614 55889,6917.9,95.438,541.151,538.379,0.0
54061.0,STARLINK-5209,PAYLOAD,2023-10-21 02:56:06,15.08833891,0.0002131,53.2167,256.8422,120.9042,239.216,-2.2854e-05,-6.52e-06,0.0,0 STARLINK-5209,1 54061U 22136L   23294.12230099 -.00000652  00000-0 -22854-4 0  9996,2 54061  53.2167 256.8422 0002131 120.9042 239.2160 15.08833891 56398,6917.899,95.438,541.238,538.29,0.0
54061.0,STARLINK-5209,PAYLOAD,2023-10-21 14:03:48,15.08842418,0.0001513,53.2177,254.7662,106.7588,253.357,0.00016941,2.409e-05,0.0,0 STARLINK-5209,1 54061U 22136L   23294.58597964  .00002409  00000-0  16941-3 0  9992,2 54061  53.2177 254.7662 0001513 106.7588 253.3570 15.08842418 55983,6917.873,95.437,540.785,538.691,0.0
54061.0,STARLINK-5209,PAYLOAD,2023-10-21 22:00:44,15.08849943,0.0001409,53.2172,253.2789,103.5434,256.5715,0.00035239,5.326e-05,0.0,0 STARLINK-5209,1 54061U 22136L   23294.91717727  .00005326  00000-0  35239-3 0  9992,2 54061  53.2172 253.2789 0001409 103.5434 256.5715 15.08849943 56034,6917.85,95.437,540.69,538.74,0.0
54061.0,STARLINK-5209,PAYLOAD,2023-10-22 04:22:16,15.08869433,0.0001361,53.2167,252.0916,89.8554,270.2594,0.0010043,0.00015744,0.0,0 STARLINK-5209,1 54061U 22136L   23295.18213396  .00015744  00000-0  10043-2 0  9995,2 54061  53.2167 252.0916 0001361  89.8554 270.2594 15.08869433 56554,6917.79,95.436,540.597,538.714,0.0
54061.0,STARLINK-5209,PAYLOAD,2023-10-22 13:54:35,15.08853233,0.0001266,53.2173,250.3066,72.818,287.2951,4.9185e-06,-2.1e-06,0.0,0 STARLINK-5209,1 54061U 22136L   23295.57957194 -.00000210  00000-0  49185-5 0  9994,2 54061  53.2173 250.3066 0001266  72.8180 287.2951 15.08853233 56139,6917.84,95.437,540.581,538.829,0.0
54061.0,STARLINK-5209,PAYLOAD,2023-10-23 04:13:04,15.08824605,0.0001362,53.2158,247.6314,74.3906,285.7237,0.00088111,0.00013757,0.0,0 STARLINK-5209,1 54061U 22136L   23296.17574141  .00013757  00000-0  88111-3 0  9997,2 54061  53.2158 247.6314 0001362  74.3906 285.7237 15.08824605 56701,6917.927,95.439,540.735,538.85,0.0
54061.0,STARLINK-5209,PAYLOAD,2023-10-23 13:45:23,15.08826882,0.0001425,53.2162,245.8477,81.5654,278.55,0.00070019,0.00010869,0.0,0 STARLINK-5209,1 54061U 22136L   23296.57318552  .00010869  00000-0  70019-3 0  9992,2 54061  53.2162 245.8477 0001425  81.5654 278.5500 15.08826882 56281,6917.92,95.438,540.771,538.8,0.0
54061.0,STARLINK-5209,PAYLOAD,2023-10-24 04:03:51,15.08840327,0.0001312,53.2157,243.1703,80.4816,279.6324,0.00061099,9.449e-05,0.0,0 STARLINK-5209,1 54061U 22136L   23297.16934621  .00009449  00000-0  61099-3 0  9999,2 54061  53.2157 243.1703 0001312  80.4816 279.6324 15.08840327 56850,6917.879,95.438,540.652,538.837,0.0
54061.0,STARLINK-5209,PAYLOAD,2023-10-24 13:36:10,15.08839526,0.0001302,53.2155,241.3865,90.2233,269.8908,0.0003592,5.433e-05,0.0,0 STARLINK-5209,1 54061U 22136L   23297.56678697  .00005433  00000-0  35920-3 0  9994,2 54061  53.2155 241.3865 0001302  90.2233 269.8908 15.08839526 56430,6917.882,95.438,540.648,538.846,0.0
54061.0,STARLINK-5209,PAYLOAD,2023-10-25 05:30:01,15.08857869,0.0001268,53.2151,238.412,90.5736,269.5402,0.00063221,9.793e-05,0.0,0 STARLINK-5209,1 54061U 22136L   23298.22918074  .00009793  00000-0  63221-3 0  9992,2 54061  53.2151 238.4120 0001268  90.5736 269.5402 15.08857869 57010,6917.826,95.436,540.568,538.814,0.0
54061.0,STARLINK-5209,PAYLOAD,2023-10-26 02:10:02,15.08848344,0.0001806,53.2147,234.5452,89.1557,270.9642,0.00035048,5.295e-05,0.0,0 STARLINK-5209,1 54061U 22136L   23299.09030457  .00005295  00000-0  35048-3 0  9997,2 54061  53.2147 234.5452 0001806  89.1557 270.9642 15.08848344 57147,6917.855,95.437,540.969,538.471,0.0
54061.0,STARLINK-5209,PAYLOAD,2023-10-26 05:20:46,15.08914231,0.0001355,53.215,233.9508,101.7786,258.3359,0.0021189,0.00033664,0.0,0 STARLINK-5209,1 54061U 22136L   23299.22276202  .00033664  00000-0  21189-2 0  9993,2 54061  53.2150 233.9508 0001355 101.7786 258.3359 15.08914231 57166,6917.654,95.433,540.456,538.581,0.0
54061.0,STARLINK-5209,PAYLOAD,2023-10-26 22:50:00,15.0888511,0.0001698,53.2154,230.6796,114.7552,245.3617,0.0010525,0.00016523,0.0,0 STARLINK-5209,1 54061U 22136L   23299.95139783  .00016523  00000-0  10525-2 0  9992,2 54061  53.2154 230.6796 0001698 114.7552 245.3617 15.08885110 56792,6917.743,95.435,540.782,538.433,0.0
54061.0,STARLINK-5209,PAYLOAD,2023-10-27 02:00:47,15.08844708,0.0001603,53.2157,230.084,90.0606,270.0569,-0.00064297,-0.00010508,0.0,0 STARLINK-5209,1 54061U 22136L   23300.08387909 -.00010508  00000-0 -64297-3 0  9999,2 54061  53.2157 230.0840 0001603  90.0606 270.0569 15.08844708 57296,6917.866,95.437,540.84,538.622,0.0
54061.0,STARLINK-5209,PAYLOAD,2023-10-27 05:11:33,15.08848603,0.0001478,53.2157,229.4894,87.4066,272.7095,-0.00053648,-8.818e-05,0.0,0 STARLINK-5209,1 54061U 22136L   23300.21635783 -.00008818  00000-0 -53648-3 0  9999,2 54061  53.2157 229.4894 0001478  87.4066 272.7095 15.08848603 56837,6917.854,95.437,540.742,538.697,0.0
54061.0,STARLINK-5209,PAYLOAD,2023-10-27 19:30:02,15.08827146,0.0001301,53.2161,226.8134,89.5168,270.5973,0.00031816,4.777e-05,0.0,0 STARLINK-5209,1 54061U 22136L   23300.81253098  .00004777  00000-0  31816-3 0  9991,2 54061  53.2161 226.8134 0001301  89.5168 270.5973 15.08827146 57405,6917.92,95.438,540.685,538.885,0.0
54061.0,STARLINK-5209,PAYLOAD,2023-10-27 22:40:48,15.08844583,0.0002112,53.2152,226.2164,109.5397,250.5823,0.00043718,6.677e-05,0.0,0 STARLINK-5209,1 54061U 22136L   23300.94500882  .00006677  00000-0  43718-3 0  9996,2 54061  53.2152 226.2164 0002112 109.5397 250.5823 15.08844583 56944,6917.866,95.437,541.192,538.27,0.0
54061.0,STARLINK-5209,PAYLOAD,2023-10-28 00:16:12,15.08847874,0.0001862,53.2166,225.9203,106.2386,253.8811,0.0013476,0.00021229,0.0,0 STARLINK-5209,1 54061U 22136L   23301.01125017  .00021229  00000-0  13476-2 0  9995,2 54061  53.2166 225.9203 0001862 106.2386 253.8811 15.08847874 57436,6917.856,95.437,541.009,538.433,0.0
54061.0,STARLINK-5209,PAYLOAD,2023-10-28 05:02:21,15.08856657,0.000152,53.2171,225.0297,97.6687,262.4478,0.0019382,0.00030707,0.0,0 STARLINK-5209,1 54061U 22136L   23301.20997038  .00030707  00000-0  19382-2 0  9999,2 54061  53.2171 225.0297 0001520  97.6687 262.4478 15.08856657 56987,6917.829,95.437,540.746,538.643,0.0
54061.0,STARLINK-5209,PAYLOAD,2023-10-28 22:31:36,15.08843171,0.0002031,53.2175,221.7577,114.965,245.1553,0.0021708,0.00034433,0.0,0 STARLINK-5209,1 54061U 22136L   23301.93862238  .00034433  00000-0  21708-2 0  9997,2 54061  53.2175 221.7577 0002031 114.9650 245.1553 15.08843171 57098,6917.871,95.437,541.141,538.331,0.0
54061.0,STARLINK-5209,PAYLOAD,2023-10-29 01:42:23,15.08836736,0.0001695,53.2171,221.1637,86.6591,273.4595,0.0015976,0.00025227,0.0,0 STARLINK-5209,1 54061U 22136L   23302.07110514  .00025227  00000-0  15976-2 0  9997,2 54061  53.2171 221.1637 0001695  86.6591 273.4595 15.08836736 57593,6917.89,95.438,540.928,538.583,0.0
54061.0,STARLINK-5209,PAYLOAD,2023-10-29 19:11:38,15.08835103,0.0001403,53.2165,217.8939,89.1939,270.9214,0.0014033,0.00022113,0.0,0 STARLINK-5209,1 54061U 22136L   23302.79975171  .00022113  00000-0  14033-2 0  9998,2 54061  53.2165 217.8939 0001403  89.1939 270.9214 15.08835103 57704,6917.895,95.438,540.731,538.79,0.0
54061.0,STARLINK-5209,PAYLOAD,2023-10-29 22:22:24,15.08840939,0.0001433,53.217,217.3004,86.0695,274.0461,0.00083785,0.00013072,0.0,0 STARLINK-5209,1 54061U 22136L   23302.93223228  .00013072  00000-0  83785-3 0  9998,2 54061  53.2170 217.3004 0001433  86.0695 274.0461 15.08840939 57247,6917.878,95.437,540.734,538.751,0.0
54061.0,STARLINK-5209,PAYLOAD,2023-10-30 11:05:29,15.088436,0.0001564,53.2174,214.9205,86.41,273.7071,0.00071701,0.00011143,0.0,0 STARLINK-5209,1 54061U 22136L   23303.46215186  .00011143  00000-0  71701-3 0  9993,2 54061  53.2174 214.9205 0001564  86.4100 273.7071 15.08843600 57800,6917.869,95.437,540.816,538.652,0.0
54061.0,STARLINK-5209,PAYLOAD,2023-10-30 22:13:12,15.08830556,0.0001706,53.2164,212.8416,84.9481,275.1706,6.7918e-05,7.93e-06,0.0,0 STARLINK-5209,1 54061U 22136L   23303.92583731  .00000793  00000-0  67918-4 0  9993,2 54061  53.2164 212.8416 0001706  84.9481 275.1706 15.08830556 57394,6917.909,95.438,540.954,538.594,0.0
54061.0,STARLINK-5209,PAYLOAD,2023-10-31 17:17:49,15.08846446,0.0001394,53.2161,209.2726,88.3698,271.7454,0.00034566,5.218e-05,0.0,0 STARLINK-5209,1 54061U 22136L   23304.72071470  .00005218  00000-0  34566-3 0  9993,2 54061  53.2161 209.2726 0001394  88.3698 271.7454 15.08846446 57999,6917.861,95.437,540.69,538.761,0.0
54061.0,STARLINK-5209,PAYLOAD,2023-10-31 22:03:59,15.08851237,0.0001451,53.2162,208.3815,89.4453,270.6705,0.00057593,8.893e-05,0.0,0 STARLINK-5209,1 54061U 22136L   23304.91943387  .00008893  00000-0  57593-3 0  9996,2 54061  53.2162 208.3815 0001451  89.4453 270.6705 15.08851237 57546,6917.846,95.437,540.715,538.707,0.0
54061.0,STARLINK-5209,PAYLOAD,2023-11-01 02:50:08,15.08870416,0.0001444,53.2159,207.4888,89.3188,270.797,0.0012114,0.0001906,0.0,0 STARLINK-5209,1 54061U 22136L   23305.11814967  .00019060  00000-0  12114-2 0  9997,2 54061  53.2159 207.4888 0001444  89.3188 270.7970 15.08870416 58050,6917.787,95.436,540.651,538.653,0.0
54061.0,STARLINK-5209,PAYLOAD,2023-11-01 10:47:04,15.08853142,0.0001971,53.2158,206.0008,78.0528,282.0685,0.00049016,7.524e-05,0.0,0 STARLINK-5209,1 54061U 22136L   23305.44935310  .00007524  00000-0  49016-3 0  9993,2 54061  53.2158 206.0008 0001971  78.0528 282.0685 15.08853142 58108,6917.84,95.437,541.069,538.342,0.0
